SCS-01 B                
1 63983U 25100B   25153.47601791  .00007413  00000+0  34204-3 0  9998
2 63983  97.4049 228.8424 0013149 191.9687 168.1237 15.20444764  2921
SCS-01 C                
1 63984U 25100C   25153.14724725  .00004068  00000+0  18936-3 0  9993
2 63984  97.4038 228.5173 0012620 215.0204 145.0203 15.20427398  2879
SCS-01 D                
1 63985U 25100D   25153.47836388  .00028379  00000+0  13224-2 0  9994
2 63985  97.4056 228.8417 0012551 187.2711 172.8344 15.19782055  2922
SCS-01 E                
1 63986U 25100E   25153.54362458  .00016141  00000+0  75604-3 0  9990
2 63986  97.4022 228.8982 0013956 192.0911 167.9991 15.19706382  2932
SCS-01 F                
1 63987U 25100F   25153.47347127  .00028017  00000+0  12263-2 0  9995
2 63987  97.4025 228.8400 0013236 194.0118 166.0753 15.21926833  2926
SCS-01 G                
1 63988U 25100G   25153.54069820  .00024895  00000+0  11038-2 0  9994
2 63988  97.4065 228.9133 0013952 193.2853 166.8017 15.21502987  2939
SCS-01 H                
1 63989U 25100H   25153.47665428  .00022045  00000+0  10049-2 0  9999
2 63989  97.4077 228.8491 0014072 195.8581 164.2216 15.20576266  2921
SCS-01 J                
1 63990U 25100J   25153.01642716  .00023565  00000+0  10980-2 0  9998
2 63990  97.4022 228.3827 0012321 193.1050 166.9866 15.19825998  2835
SCS-01 K                
1 63991U 25100K   25153.47403520  .00019586  00000+0  91256-3 0  9991
2 63991  97.4026 228.8394 0013553 202.4205 157.6439 15.19853104  2910
SCS-01 L                
1 63992U 25100L   25153.47512864  .00020375  00000+0  95116-3 0  9991
2 63992  97.4055 228.8454 0013385 192.9547 167.1346 15.19778858  2909
SCS-01 M                
1 63993U 25100M   25153.47705238  .00020720  00000+0  97903-3 0  9991
2 63993  97.4055 228.8429 0013931 202.1478 157.9157 15.19350497  2919
STARLINK-33871          
1 63994U 25101A   25153.16667824 -.01609765  00000+0 -18862-1 0  9997
2 63994  42.9999 145.7684 0001361 271.2125  25.2097 15.63813468  2924
STARLINK-34154          
1 63995U 25101B   25153.16667824 -.01608237  00000+0 -18842-1 0  9999
2 63995  42.9998 145.7636 0001385 273.4285  24.9095 15.63812913  4041
STARLINK-34158          
1 63996U 25101C   25153.16667824  .00022560  00000+0  38970-3 0  9992
2 63996  42.9999 147.0909 0001499 261.0388 221.7520 15.50547507  2929
STARLINK-34165          
1 63997U 25101D   25153.16667824 -.01612442  00000+0 -18896-1 0  9993
2 63997  42.9999 145.7500 0001276 263.5831  40.5059 15.63816243  4044
STARLINK-34150          
1 63998U 25101E   25153.16667824 -.01609640  00000+0 -18861-1 0  9992
2 63998  43.0000 145.7594 0001341 273.3029  26.9538 15.63812796  2939
STARLINK-34169          
1 63999U 25101F   25153.16667824 -.01612374  00000+0 -18895-1 0  9998
2 63999  42.9999 145.7549 0001250 268.3766  33.7941 15.63816633  2945
STARLINK-34152          
1 64000U 25101G   25153.16667824 -.01606617  00000+0 -18819-1 0  9991
2 64000  43.0000 145.7307 0001585 272.2258  39.5305 15.63812928  4063
STARLINK-33927          
1 64001U 25101H   25153.16667824 -.01607843  00000+0 -18837-1 0  9994
2 64001  42.9998 145.7452 0001404 272.4131  33.5940 15.63812435  2926
STARLINK-33898          
1 64002U 25101J   25153.16667824 -.01602930  00000+0 -18772-1 0  9995
2 64002  42.9999 145.7356 0001591 275.3171  34.5220 15.63810518  4041
STARLINK-33928          
1 64003U 25101K   25153.25002315 -.01609663  00000+0 -19081-1 0  9998
2 64003  42.9999 145.2436 0001338 281.9107 135.7432 15.63522509  4057
STARLINK-33758          
1 64004U 25101L   25153.16667824 -.01622713  00000+0 -19026-1 0  9991
2 64004  42.9997 145.7213 0001528 271.0794  44.5119 15.63821728  4062
STARLINK-33936          
1 64005U 25101M   25153.16667824 -.01603229  00000+0 -18777-1 0  9995
2 64005  43.0000 145.7260 0001455 273.2093  40.4650 15.63810534  4065
STARLINK-33931          
1 64006U 25101N   25153.16667824 -.01609817  00000+0 -18861-1 0  9999
2 64006  42.9998 145.7165 0001512 270.0446  47.4642 15.63814146  4123
STARLINK-33759          
1 64007U 25101P   25153.16667824 -.01613063  00000+0 -18903-1 0  9995
2 64007  43.0000 145.7114 0001403 270.7455  48.6794 15.63816584  3869
STARLINK-34163          
1 64008U 25101Q   25153.16667824 -.01604905  00000+0 -18797-1 0  9992
2 64008  42.9999 145.7064 0001519 276.0868  45.2527 15.63812768  4042
STARLINK-34077          
1 64009U 25101R   25153.16667824 -.01606090  00000+0 -18812-1 0  9998
2 64009  42.9999 145.7017 0001626 271.0098  52.2488 15.63812545  3967
STARLINK-34113          
1 64010U 25101S   25153.16667824 -.01606843  00000+0 -18823-1 0  9998
2 64010  42.9999 145.6977 0001477 273.8077  51.3688 15.63812702  4063
STARLINK-34193          
1 64011U 25101T   25153.16667824 -.01599582  00000+0 -18729-1 0  9995
2 64011  42.9999 145.6923 0001632 273.6248  53.4688 15.63808414  4042
STARLINK-34078          
1 64012U 25101U   25153.16667824 -.01611416  00000+0 -18881-1 0  9996
2 64012  43.0000 145.6870 0001510 266.4025  62.6078 15.63815728  4015
STARLINK-34182          
1 64013U 25101V   25153.16667824 -.01613964  00000+0 -18914-1 0  9994
2 64013  43.0001 145.6826 0001419 272.2421  58.6839 15.63817652  4019
STARLINK-34192          
1 64014U 25101W   25153.16667824 -.01610090  00000+0 -18865-1 0  9997
2 64014  42.9999 145.6787 0001464 272.5246  60.3213 15.63814133  3968
STARLINK-34093          
1 64015U 25101X   25153.16667824 -.01610555  00000+0 -18869-1 0  9998
2 64015  43.0000 145.6733 0001638 274.3334  60.4267 15.63815180  4061
STARLINK-34016          
1 64016U 25101Y   25153.16667824 -.01613122  00000+0 -18900-1 0  9998
2 64016  43.0000 145.6678 0001698 272.2447  64.4291 15.63818497  4052
STARLINK-34161          
1 64017U 25101Z   25153.16667824 -.01601744  00000+0 -18755-1 0  9994
2 64017  42.9999 145.6588 0001655 274.3516  66.1579 15.63811611  4050
STARLINK-34162          
1 64018U 25101AA  25153.16667824 -.01591644  00000+0 -18625-1 0  9998
2 64018  42.9999 145.6538 0001761 273.8379  68.5878 15.63805944  4055
STARLINK-34155          
1 64019U 25101AB  25153.16667824 -.01603862  00000+0 -18784-1 0  9991
2 64019  42.9999 145.6493 0001479 275.2680  69.0770 15.63812120  3974
STARLINK-34141          
1 64020U 25101AC  25153.16667824 -.01610424  00000+0 -18867-1 0  9997
2 64020  42.9999 145.6440 0001551 274.6752  71.5861 15.63816440  4050
STARLINK-34062          
1 64021U 25101AD  25153.16667824 -.01606868  00000+0 -18822-1 0  9996
2 64021  42.9999 145.6632 0001661 268.4414  70.1544 15.63812552  3919
STARLINK-34051          
1 64022U 25102A   25153.50002315 -.01588196  00000+0 -17428-1 0  9998
2 64022  69.9992 107.7587 0003750 270.4100  19.1297 15.65990112  3814
STARLINK-34184          
1 64023U 25102B   25153.50002315 -.01588808  00000+0 -17434-1 0  9996
2 64023  69.9991 107.7547 0003731 271.7369  21.6317 15.65992577  3829
STARLINK-34087          
1 64024U 25102C   25153.50002315 -.01586766  00000+0 -17411-1 0  9993
2 64024  69.9992 107.7563 0003746 269.0229  22.4335 15.65989272  3704
STARLINK-34088          
1 64025U 25102D   25153.50002315 -.01590581  00000+0 -17455-1 0  9992
2 64025  69.9992 107.7526 0003768 271.6991  23.5859 15.65993320  3828
STARLINK-33992          
1 64026U 25102E   25153.50002315 -.01586283  00000+0 -17404-1 0  9991
2 64026  69.9991 107.7502 0003771 271.6539  25.5489 15.65990415  3917
STARLINK-33967          
1 64027U 25102F   25153.50002315 -.01581982  00000+0 -17354-1 0  9997
2 64027  69.9991 107.7478 0003757 270.0307  29.0922 15.65986308  3759
STARLINK-33953          
1 64028U 25102G   25153.50002315 -.01588509  00000+0 -17431-1 0  9996
2 64028  69.9991 107.7450 0003805 269.4672  31.5708 15.65990608  3917
STARLINK-33790          
1 64029U 25102H   25153.50002315 -.01589186  00000+0 -17438-1 0  9996
2 64029  69.9997 107.7434 0003743 271.8864  31.0638 15.65993357  3862
STARLINK-34030          
1 64030U 25102J   25153.50002315 -.01588924  00000+0 -17435-1 0  9994
2 64030  69.9997 107.7411 0003792 271.0353  33.8328 15.65992382  3827
STARLINK-34024          
1 64031U 25102K   25153.50002315 -.01588826  00000+0 -17434-1 0  9995
2 64031  69.9997 107.7389 0003761 272.5831  34.2011 15.65992499  3750
STARLINK-34019          
1 64032U 25102L   25153.50002315 -.01585260  00000+0 -17392-1 0  9998
2 64032  69.9998 107.7317 0003764 270.3826  42.1535 15.65989654  3822
STARLINK-33860          
1 64033U 25102M   25153.50002315 -.01587321  00000+0 -17417-1 0  9997
2 64033  69.9993 107.7361 0003778 271.8955  36.8080 15.65990042  3829
STARLINK-33946          
1 64034U 25102N   25153.50002315 -.01590792  00000+0 -17458-1 0  9999
2 64034  69.9998 107.7340 0003746 269.2469  41.3722 15.65993066  3865
STARLINK-34046          
1 64035U 25102P   25153.50002315  .00279623  33222-4  83073-3 0  9999
2 64035  69.9892 107.2630 0004713 241.3267 101.9165 15.92306919  3609
STARLINK-34085          
1 64036U 25102Q   25153.50002315 -.01588585  00000+0 -17431-1 0  9999
2 64036  69.9999 107.7269 0003798 272.6883  43.6790 15.65992048  3817
STARLINK-34008          
1 64037U 25102R   25153.50002315 -.01585608  00000+0 -17396-1 0  9993
2 64037  69.9992 107.7245 0003800 273.0020  45.2831 15.65989568  3825
STARLINK-34079          
1 64038U 25102S   25153.50002315 -.01586238  00000+0 -17403-1 0  9993
2 64038  69.9999 107.7223 0003796 272.8347  47.3661 15.65990731  3910
STARLINK-34089          
1 64039U 25102T   25153.50002315 -.01588317  00000+0 -17427-1 0  9990
2 64039  69.9999 107.7201 0003832 272.2292  49.8865 15.65992578  3814
STARLINK-34117          
1 64040U 25102U   25153.50002315 -.01587148  00000+0 -17413-1 0  9998
2 64040  69.9998 107.7176 0003832 273.4263  50.6056 15.65991973  3750
STARLINK-34111          
1 64041U 25102V   25153.50002315 -.01588719  00000+0 -17432-1 0  9995
2 64041  69.9999 107.7156 0003792 273.8079  52.1402 15.65993051  3597
